{"type": "FeatureCollection", "features": [ {"type": "Feature", "properties": {"norad_id": 29953, "name": "FENGYUN 1C DEB", "group": "fengyun-1c-debris", "lat": -29.414014092779542, "lon": -29.106455655590192, "alt_km": 873.0731477428144, "timestamp": "2025-12-04T13:52:00.715342+00:00", "meta": {"OBJECT_NAME": "FENGYUN 1C DEB", "OBJECT_ID": "1999-025KB", "EPOCH": "2025-12-04T05:27:51.322176", "MEAN_MOTION": 13.90831573, "ECCENTRICITY": 0.01056979, "INCLINATION": 98.937, "RA_OF_ASC_NODE": 325.467, "ARG_OF_PERICENTER": 290.061, "MEAN_ANOMALY": 87.402, "EPHEMERIS_TYPE": 0, "CLASSIFICATION_TYPE": "U", "NORAD_CAT_ID": 29953, "ELEMENT_SET_NO": 999, "REV_AT_EPOCH": 95744, "BSTAR": 0.00059651567, "MEAN_MOTION_DOT": 7.38e-06, "MEAN_MOTION_DDOT": 0}, "tle": {"line1": "1 29953U 99025KB  25338.22767734  .00000738  00000+0  59652-3 0  9999", "line2": "2 29953  98.9370 325.4670 0105697 290.0610  87.4020 13.90831573957449"}}, "geometry": {"type": "Point", "coordinates": [-29.106455655590192, -29.414014092779542]}}, {"type": "Feature", "properties": {"norad_id": 29954, "name": "FENGYUN 1C DEB", "group": "fengyun-1c-debris", "lat": 79.65227097853676, "lon": -63.62954363871674, "alt_km": 818.648981292632, "timestamp": "2025-12-04T13:52:00.715352+00:00", "meta": {"OBJECT_NAME": "FENGYUN 1C DEB", "OBJECT_ID": "1999-025KC", "EPOCH": "2025-12-04T01:44:08.106720", "MEAN_MOTION": 14.34167136, "ECCENTRICITY": 0.0074171, "INCLINATION": 100.1514, "RA_OF_ASC_NODE": 14.6661, "ARG_OF_PERICENTER": 293.8252, "MEAN_ANOMALY": 65.5164, "EPHEMERIS_TYPE": 0, "CLASSIFICATION_TYPE": "U", "NORAD_CAT_ID": 29954, "ELEMENT_SET_NO": 999, "REV_AT_EPOCH": 98063, "BSTAR": 0.0019265393, "MEAN_MOTION_DOT": 5.512e-05, "MEAN_MOTION_DDOT": 0}, "tle": {"line1": "1 29954U 99025KC  25338.07231605  .00005512  00000+0  19265-2 0  9996", "line2": "2 29954 100.1514  14.6661 0074171 293.8252  65.5164 14.34167136980637"}}, "geometry": {"type": "Point", "coordinates": [-63.62954363871674, 79.65227097853676]}}, {"type": "Feature", "properties": {"norad_id": 29955, "name": "FENGYUN 1C DEB", "group": "fengyun-1c-debris", "lat": 62.47612867517948, "lon": 40.32382289338451, "alt_km": 763.04491276717, "timestamp": "2025-12-04T13:52:00.715362+00:00", "meta": {"OBJECT_NAME": "FENGYUN 1C DEB", "OBJECT_ID": "1999-025KD", "EPOCH": "2025-12-03T11:08:43.281312", "MEAN_MOTION": 14.38099788, "ECCENTRICITY": 0.0007042, "INCLINATION": 99.2754, "RA_OF_ASC_NODE": 57.3996, "ARG_OF_PERICENTER": 275.1774, "MEAN_ANOMALY": 147.7914, "EPHEMERIS_TYPE": 0, "CLASSIFICATION_TYPE": "U", "NORAD_CAT_ID": 29955, "ELEMENT_SET_NO": 999, "REV_AT_EPOCH": 97928, "BSTAR": 0.0022128322, "MEAN_MOTION_DOT": 6.664e-05, "MEAN_MOTION_DDOT": 0}, "tle": {"line1": "1 29955U 99025KD  25337.46438983  .00006664  00000+0  22128-2 0  9998", "line2": "2 29955  99.2754  57.3996 0007042 275.1774 147.7914 14.38099788979288"}}, "geometry": {"type": "Point", "coordinates": [40.32382289338451, 62.47612867517948]}}, {"type": "Feature", "properties": {"norad_id": 29956, "name": "FENGYUN 1C DEB", "group": "fengyun-1c-debris", "lat": -13.027027944011142, "lon": 9.721526878847925, "alt_km": 853.3937189763819, "timestamp": "2025-12-04T13:52:00.715373+00:00", "meta": {"OBJECT_NAME": "FENGYUN 1C DEB", "OBJECT_ID": "1999-025KE", "EPOCH": "2025-12-04T02:16:14.576160", "MEAN_MOTION": 14.06168253, "ECCENTRICITY": 0.00540728, "INCLINATION": 98.7927, "RA_OF_ASC_NODE": 7.2002, "ARG_OF_PERICENTER": 41.637, "MEAN_ANOMALY": 21.2267, "EPHEMERIS_TYPE": 0, "CLASSIFICATION_TYPE": "U", "NORAD_CAT_ID": 29956, "ELEMENT_SET_NO": 999, "REV_AT_EPOCH": 96928, "BSTAR": 0.00024247179, "MEAN_MOTION_DOT": 3.61e-06, "MEAN_MOTION_DDOT": 0}, "tle": {"line1": "1 29956U 99025KE  25338.09461315  .00000361  00000+0  24247-3 0  9997", "line2": "2 29956  98.7927   7.2002 0054072  41.6370  21.2267 14.06168253969285"}}, "geometry": {"type": "Point", "coordinates": [9.721526878847925, -13.027027944011142]}}, {"type": "Feature", "properties": {"norad_id": 29957, "name": "FENGYUN 1C DEB", "group": "fengyun-1c-debris", "lat": 11.435150770026514, "lon": -73.12115902091814, "alt_km": 701.6914930507965, "timestamp": "2025-12-04T13:52:00.715383+00:00", "meta": {"OBJECT_NAME": "FENGYUN 1C DEB", "OBJECT_ID": "1999-025KF", "EPOCH": "2025-12-04T06:45:39.769920", "MEAN_MOTION": 14.5060739, "ECCENTRICITY": 0.00389935, "INCLINATION": 98.9216, "RA_OF_ASC_NODE": 104.7444, "ARG_OF_PERICENTER": 202.3231, "MEAN_ANOMALY": 220.9401, "EPHEMERIS_TYPE": 0, "CLASSIFICATION_TYPE": "U", "NORAD_CAT_ID": 29957, "ELEMENT_SET_NO": 999, "REV_AT_EPOCH": 97369, "BSTAR": 0.013061359, "MEAN_MOTION_DOT": 0.00052083, "MEAN_MOTION_DDOT": 0}, "tle": {"line1": "1 29957U 99025KF  25338.28171030  .00052083  00000+0  13061-1 0  9999", "line2": "2 29957  98.9216 104.7444 0038993 202.3231 220.9401 14.50607390973695"}}, "geometry": {"type": "Point", "coordinates": [-73.12115902091814, 11.435150770026514]}}, {"type": "Feature", "properties": {"norad_id": 29958, "name": "FENGYUN 1C DEB", "group": "fengyun-1c-debris", "lat": 69.82159738045571, "lon": -31.343291629125446, "alt_km": 827.0006628656765, "timestamp": "2025-12-04T13:52:00.715393+00:00", "meta": {"OBJECT_NAME": "FENGYUN 1C DEB", "OBJECT_ID": "1999-025KG", "EPOCH": "2025-12-04T06:44:27.085056", "MEAN_MOTION": 14.14439849, "ECCENTRICITY": 0.00547772, "INCLINATION": 98.6688, "RA_OF_ASC_NODE": 352.8961, "ARG_OF_PERICENTER": 357.5563, "MEAN_ANOMALY": 2.5335, "EPHEMERIS_TYPE": 0, "CLASSIFICATION_TYPE": "U", "NORAD_CAT_ID": 29958, "ELEMENT_SET_NO": 999, "REV_AT_EPOCH": 97331, "BSTAR": 0.00059418897, "MEAN_MOTION_DOT": 1.112e-05, "MEAN_MOTION_DDOT": 0}, "tle": {"line1": "1 29958U 99025KG  25338.28086904  .00001112  00000+0  59419-3 0  9991", "line2": "2 29958  98.6688 352.8961 0054777 357.5563   2.5335 14.14439849973316"}}, "geometry": {"type": "Point", "coordinates": [-31.343291629125446, 69.82159738045571]}}, {"type": "Feature", "properties": {"norad_id": 29959, "name": "FENGYUN 1C DEB", "group": "fengyun-1c-debris", "lat": -63.59568246113972, "lon": 27.66484621635656, "alt_km": 863.121622752441, "timestamp": "2025-12-04T13:52:00.715403+00:00", "meta": {"OBJECT_NAME": "FENGYUN 1C DEB", "OBJECT_ID": "1999-025KH", "EPOCH": "2025-12-04T00:48:06.000192", "MEAN_MOTION": 14.06008406, "ECCENTRICITY": 0.00420117, "INCLINATION": 98.8091, "RA_OF_ASC_NODE": 8.9361, "ARG_OF_PERICENTER": 352.6235, "MEAN_ANOMALY": 68.8792, "EPHEMERIS_TYPE": 0, "CLASSIFICATION_TYPE": "U", "NORAD_CAT_ID": 29959, "ELEMENT_SET_NO": 999, "REV_AT_EPOCH": 96818, "BSTAR": 0.00037758449, "MEAN_MOTION_DOT": 5.81e-06, "MEAN_MOTION_DDOT": 0}, "tle": {"line1": "1 29959U 99025KH  25338.03340278  .00000581  00000+0  37758-3 0  9993", "line2": "2 29959  98.8091   8.9361 0042011 352.6235  68.8792 14.06008406968183"}}, "geometry": {"type": "Point", "coordinates": [27.66484621635656, -63.59568246113972]}}, {"type": "Feature", "properties": {"norad_id": 29960, "name": "FENGYUN 1C DEB", "group": "fengyun-1c-debris", "lat": 65.64980227937579, "lon": -55.15661887820415, "alt_km": 860.8551521295958, "timestamp": "2025-12-04T13:52:00.715413+00:00", "meta": {"OBJECT_NAME": "FENGYUN 1C DEB", "OBJECT_ID": "1999-025KJ", "EPOCH": "2025-12-03T22:32:54.141792", "MEAN_MOTION": 14.16375252, "ECCENTRICITY": 0.00912875, "INCLINATION": 98.6135, "RA_OF_ASC_NODE": 323.7931, "ARG_OF_PERICENTER": 311.7921, "MEAN_ANOMALY": 101.7752, "EPHEMERIS_TYPE": 0, "CLASSIFICATION_TYPE": "U", "NORAD_CAT_ID": 29960, "ELEMENT_SET_NO": 999, "REV_AT_EPOCH": 97330, "BSTAR": 0.00085568592, "MEAN_MOTION_DOT": 1.727e-05, "MEAN_MOTION_DDOT": 0}, "tle": {"line1": "1 29960U 99025KJ  25337.93951553  .00001727  00000+0  85569-3 0  9993", "line2": "2 29960  98.6135 323.7931 0091287 311.7921 101.7752 14.16375252973300"}}, "geometry": {"type": "Point", "coordinates": [-55.15661887820415, 65.64980227937579]}}, {"type": "Feature", "properties": {"norad_id": 29961, "name": "FENGYUN 1C DEB", "group": "fengyun-1c-debris", "lat": -53.73599353242217, "lon": -121.80599205432664, "alt_km": 762.1671550800456, "timestamp": "2025-12-04T13:52:00.715423+00:00", "meta": {"OBJECT_NAME": "FENGYUN 1C DEB", "OBJECT_ID": "1999-025KK", "EPOCH": "2025-12-04T05:42:02.436480", "MEAN_MOTION": 14.26201498, "ECCENTRICITY": 0.00745269, "INCLINATION": 98.9487, "RA_OF_ASC_NODE": 225.4436, "ARG_OF_PERICENTER": 329.6147, "MEAN_ANOMALY": 30.0723, "EPHEMERIS_TYPE": 0, "CLASSIFICATION_TYPE": "U", "NORAD_CAT_ID": 29961, "ELEMENT_SET_NO": 999, "REV_AT_EPOCH": 98188, "BSTAR": 0.00040631498, "MEAN_MOTION_DOT": 9.55e-06, "MEAN_MOTION_DDOT": 0}, "tle": {"line1": "1 29961U 99025KK  25338.23752820  .00000955  00000+0  40631-3 0  9997", "line2": "2 29961  98.9487 225.4436 0074526 329.6147  30.0723 14.26201498981882"}}, "geometry": {"type": "Point", "coordinates": [-121.80599205432664, -53.73599353242217]}}, {"type": "Feature", "properties": {"norad_id": 29962, "name": "FENGYUN 1C DEB", "group": "fengyun-1c-debris", "lat": -41.351805332359596, "lon": -5.198007121999847, "alt_km": 852.6918220774805, "timestamp": "2025-12-04T13:52:00.715433+00:00", "meta": {"OBJECT_NAME": "FENGYUN 1C DEB", "OBJECT_ID": "1999-025KL", "EPOCH": "2025-12-04T07:17:38.199840", "MEAN_MOTION": 14.07149899, "ECCENTRICITY": 0.01094566, "INCLINATION": 98.7687, "RA_OF_ASC_NODE": 346.7289, "ARG_OF_PERICENTER": 245.1345, "MEAN_ANOMALY": 125.2134, "EPHEMERIS_TYPE": 0, "CLASSIFICATION_TYPE": "U", "NORAD_CAT_ID": 29962, "ELEMENT_SET_NO": 999, "REV_AT_EPOCH": 96879, "BSTAR": 0.00037762267, "MEAN_MOTION_DOT": 6.24e-06, "MEAN_MOTION_DDOT": 0}, "tle": {"line1": "1 29962U 99025KL  25338.30391435  .00000624  00000+0  37762-3 0  9991", "line2": "2 29962  98.7687 346.7289 0109456 245.1345 125.2134 14.07149899968792"}}, "geometry": {"type": "Point", "coordinates": [-5.198007121999847, -41.351805332359596]}}]}